NORAD_CAT_ID,OBJECT_NAME,OBJECT_TYPE,EPOCH,MEAN_MOTION,ECCENTRICITY,INCLINATION,RA_OF_ASC_NODE,ARG_OF_PERICENTER,MEAN_ANOMALY,BSTAR,MEAN_MOTION_DOT,MEAN_MOTION_DDOT,TLE_LINE0,TLE_LINE1,TLE_LINE2,SEMIMAJOR_AXIS,PERIOD,APOGEE,PERIGEE,DECAYED
56777.0,STARLINK-5582,PAYLOAD,2024-04-30 14:21:13,14.98328576,0.0002936,70.0003,254.3654,268.7096,91.3727,0.00012428,1.39e-05,0.0,0 STARLINK-5582,1 56777U 23078L   24121.59807308  .00001390  00000-0  12428-3 0  9995,2 56777  70.0003 254.3654 0002936 268.7096  91.3727 14.98328576 51100,6950.197,96.107,574.103,570.022,0.0
56777.0,STARLINK-5582,PAYLOAD,2024-04-30 19:09:37,14.98332052,0.0002955,70.0002,253.8606,268.732,91.3501,0.00011644,1.297e-05,0.0,0 STARLINK-5582,1 56777U 23078L   24121.79835097  .00001297  00000-0  11644-3 0  9998,2 56777  70.0002 253.8606 0002955 268.7320  91.3501 14.98332052 51396,6950.187,96.107,574.105,569.998,0.0
56777.0,STARLINK-5582,PAYLOAD,2024-05-01 01:34:09,14.98331242,0.0002946,70.0004,253.1873,268.8561,91.226,7.9109e-05,8.51e-06,0.0,0 STARLINK-5582,1 56777U 23078L   24122.06539209  .00000851  00000-0  79109-4 0  9991,2 56777  70.0004 253.1873 0002946 268.8561  91.2260 14.98331242 51172,6950.189,96.107,574.102,570.007,0.0
56777.0,STARLINK-5582,PAYLOAD,2024-05-01 19:11:38,14.98335839,0.0002951,70.0004,251.336,267.5768,92.5053,4.5048e-05,4.45e-06,0.0,0 STARLINK-5582,1 56777U 23078L   24122.79974800  .00000445  00000-0  45048-4 0  9995,2 56777  70.0004 251.3360 0002951 267.5768  92.5053 14.98335839 51545,6950.175,96.107,574.091,569.989,0.0
56777.0,STARLINK-5582,PAYLOAD,2024-05-02 12:49:07,14.983279,0.0002857,70.0005,249.4846,266.1692,93.9141,-5.3601e-05,-7.32e-06,0.0,0 STARLINK-5582,1 56777U 23078L   24123.53411457 -.00000732  00000-0 -53601-4 0  9997,2 56777  70.0005 249.4846 0002857 266.1692  93.9141 14.98327900 51654,6950.199,96.107,574.05,570.079,0.0
56777.0,STARLINK-5582,PAYLOAD,2024-05-02 14:25:15,14.98329887,0.0002788,70.0002,249.3162,263.1113,96.9729,-2.7918e-05,-4.26e-06,0.0,0 STARLINK-5582,1 56777U 23078L   24123.60087248 -.00000426  00000-0 -27918-4 0  9994,2 56777  70.0002 249.3162 0002788 263.1113  96.9729 14.98329887 51403,6950.193,96.107,573.996,570.121,0.0
56777.0,STARLINK-5582,PAYLOAD,2024-05-03 01:38:11,14.98336005,0.0003225,69.9993,248.1377,260.5567,99.5227,2.5967e-05,2.17e-06,0.0,0 STARLINK-5582,1 56777U 23078L   24124.06818553  .00000217  00000-0  25967-4 0  9994,2 56777  69.9993 248.1377 0003225 260.5567  99.5227 14.98336005 51733,6950.174,96.107,574.281,569.798,0.0
56777.0,STARLINK-5582,PAYLOAD,2024-05-03 14:27:15,14.9833806,0.0003015,69.9996,246.7917,268.5548,91.5266,0.00013891,1.565e-05,0.0,0 STARLINK-5582,1 56777U 23078L   24124.60225831  .00001565  00000-0  13891-3 0  9994,2 56777  69.9996 246.7917 0003015 268.5548  91.5266 14.98338060 51552,6950.168,96.106,574.128,569.937,0.0
56777.0,STARLINK-5582,PAYLOAD,2024-05-03 17:39:31,14.98339918,0.000299,69.9997,246.455,268.7037,91.3779,0.00015554,1.764e-05,0.0,0 STARLINK-5582,1 56777U 23078L   24124.73577611  .00001764  00000-0  15554-3 0  9993,2 56777  69.9997 246.4550 0002990 268.7037  91.3779 14.98339918 51571,6950.162,96.106,574.105,569.949,0.0
56777.0,STARLINK-5582,PAYLOAD,2024-05-04 01:40:11,14.98334646,0.0002881,69.9989,245.6113,270.3089,89.774,4.9168e-05,4.94e-06,0.0,0 STARLINK-5582,1 56777U 23078L   24125.06958159  .00000494  00000-0  49168-4 0  9998,2 56777  69.9989 245.6113 0002881 270.3089  89.7740 14.98334646 51889,6950.179,96.107,574.046,570.041,0.0
56777.0,STARLINK-5582,PAYLOAD,2024-05-04 12:53:09,14.98320291,0.0002966,69.9996,244.4351,265.6853,94.3967,-1.0619e-05,-2.2e-06,0.0,0 STARLINK-5582,1 56777U 23078L   24125.53691400 -.00000220  00000-0 -10619-4 0  9991,2 56777  69.9996 244.4351 0002966 265.6853  94.3967 14.98320291 51950,6950.223,96.108,574.149,570.026,0.0
56777.0,STARLINK-5582,PAYLOAD,2024-05-05 12:55:09,14.98333593,0.0002997,69.9999,241.9098,270.2395,89.8421,-1.3202e-05,-2.51e-06,0.0,0 STARLINK-5582,1 56777U 23078L   24126.53830841 -.00000251  00000-0 -13202-4 0  9991,2 56777  69.9999 241.9098 0002997 270.2395  89.8421 14.98333593 52101,6950.182,96.107,574.13,569.964,0.0
56777.0,STARLINK-5582,PAYLOAD,2024-05-05 14:31:17,14.98335119,0.0003186,69.9997,241.7418,272.2565,87.8229,-2.082e-05,-3.41e-06,0.0,0 STARLINK-5582,1 56777U 23078L   24126.60506778 -.00000341  00000-0 -20820-4 0  9992,2 56777  69.9997 241.7418 0003186 272.2565  87.8229 14.98335119 51856,6950.177,96.107,574.256,569.828,0.0
56777.0,STARLINK-5582,PAYLOAD,2024-05-05 17:43:33,14.98339224,0.0002945,70.0,241.4047,270.077,90.0052,1.0654e-05,3.4e-07,0.0,0 STARLINK-5582,1 56777U 23078L   24126.73858368  .00000034  00000-0  10654-4 0  9992,2 56777  70.0000 241.4047 0002945 270.0770  90.0052 14.98339224 51878,6950.164,96.106,574.076,569.983,0.0
56777.0,STARLINK-5582,PAYLOAD,2024-05-06 14:33:18,14.9833467,0.0002928,70.0,239.2169,271.8311,88.2513,0.0002477,2.864e-05,0.0,0 STARLINK-5582,1 56777U 23078L   24127.60646023  .00002864  00000-0  24770-3 0  9998,2 56777  70.0000 239.2169 0002928 271.8311  88.2513 14.98334670 52006,6950.178,96.107,574.078,570.008,0.0
56777.0,STARLINK-5582,PAYLOAD,2024-05-06 17:45:34,14.98337504,0.0002897,70.0001,238.8801,271.8124,88.2703,0.00027352,3.173e-05,0.0,0 STARLINK-5582,1 56777U 23078L   24127.73997770  .00003173  00000-0  27352-3 0  9993,2 56777  70.0001 238.8801 0002897 271.8124  88.2703 14.98337504 52282,6950.17,96.107,574.048,570.021,0.0
56777.0,STARLINK-5582,PAYLOAD,2024-05-07 12:59:12,14.98327966,0.0002855,70.0005,236.8604,267.2187,92.8645,-5.1073e-05,-7.02e-06,0.0,0 STARLINK-5582,1 56777U 23078L   24128.54111157 -.00000702  00000-0 -51073-4 0  9995,2 56777  70.0005 236.8604 0002855 267.2187  92.8645 14.98327966 52408,6950.199,96.107,574.048,570.08,0.0
56777.0,STARLINK-5582,PAYLOAD,2024-05-07 14:35:20,14.98328658,0.0002812,70.0004,236.6924,264.6623,95.4215,-4.5676e-05,-6.38e-06,0.0,0 STARLINK-5582,1 56777U 23078L   24128.60787085 -.00000638  00000-0 -45676-4 0  9991,2 56777  70.0004 236.6924 0002812 264.6623  95.4215 14.98328658 52152,6950.197,96.107,574.016,570.108,0.0
56777.0,STARLINK-5582,PAYLOAD,2024-05-07 16:11:28,14.98329691,0.0002803,70.0005,236.5249,265.3637,94.7202,-3.5434e-05,-5.16e-06,0.0,0 STARLINK-5582,1 56777U 23078L   24128.67463000 -.00000516  00000-0 -35434-4 0  9992,2 56777  70.0005 236.5249 0002803 265.3637  94.7202 14.98329691 52162,6950.194,96.107,574.007,570.111,0.0
56777.0,STARLINK-5582,PAYLOAD,2024-05-08 13:01:12,14.98337278,0.0002842,70.0004,234.3356,263.7178,96.3658,-5.4336e-06,-1.58e-06,0.0,0 STARLINK-5582,1 56777U 23078L   24129.54250279 -.00000158  00000-0 -54336-5 0  9996,2 56777  70.0004 234.3356 0002842 263.7178  96.3658 14.98337278 52557,6950.17,96.107,574.011,570.06,0.0
56777.0,STARLINK-5582,PAYLOAD,2024-05-08 14:37:20,14.98339818,0.000298,70.0001,234.1675,268.5149,91.5669,-1.1784e-05,-2.34e-06,0.0,0 STARLINK-5582,1 56777U 23078L   24129.60926123 -.00000234  00000-0 -11784-4 0  9995,2 56777  70.0001 234.1675 0002980 268.5149  91.5669 14.98339818 52304,6950.163,96.106,574.099,569.956,0.0
56777.0,STARLINK-5582,PAYLOAD,2024-05-08 16:13:28,14.98341383,0.0003002,70.0,233.9989,269.1115,90.97,3.5949e-06,-5e-07,0.0,0 STARLINK-5582,1 56777U 23078L   24129.67601947 -.00000050  00000-0  35949-5 0  9991,2 56777  70.0000 233.9989 0003002 269.1115  90.9700 14.98341383 52314,6950.158,96.106,574.109,569.936,0.0
56777.0,STARLINK-5582,PAYLOAD,2024-05-09 13:03:13,14.98327766,0.0003106,70.0001,231.8113,270.0152,90.0652,0.00010402,1.148e-05,0.0,0 STARLINK-5582,1 56777U 23078L   24130.54390480  .00001148  00000-0  10402-3 0  9999,2 56777  70.0001 231.8113 0003106 270.0152  90.0652 14.98327766 52707,6950.2,96.107,574.224,569.906,0.0
56777.0,STARLINK-5582,PAYLOAD,2024-05-09 14:39:21,14.98328271,0.0003015,70.0002,231.6429,268.3412,91.7402,9.0011e-05,9.81e-06,0.0,0 STARLINK-5582,1 56777U 23078L   24130.61066500  .00000981  00000-0  90011-4 0  9999,2 56777  70.0002 231.6429 0003015 268.3412  91.7402 14.98328271 52459,6950.198,96.107,574.159,569.968,0.0
56777.0,STARLINK-5582,PAYLOAD,2024-05-09 16:15:29,14.98330531,0.0003025,70.0002,231.4745,268.6427,91.4385,9.4194e-05,1.031e-05,0.0,0 STARLINK-5582,1 56777U 23078L   24130.67742326  .00001031  00000-0  94194-4 0  9995,2 56777  70.0002 231.4745 0003025 268.6427  91.4385 14.98330531 52468,6950.191,96.107,574.159,569.954,0.0
56777.0,STARLINK-5582,PAYLOAD,2024-05-10 13:05:14,14.98331126,0.0003007,70.0003,229.2867,269.8741,90.2074,-3.0201e-05,-4.53e-06,0.0,0 STARLINK-5582,1 56777U 23078L   24131.54530827 -.00000453  00000-0 -30201-4 0  9991,2 56777  70.0003 229.2867 0003007 269.8741  90.2074 14.98331126 52857,6950.189,96.107,574.144,569.964,0.0
56777.0,STARLINK-5582,PAYLOAD,2024-05-10 14:41:22,14.98330727,0.0002992,70.0003,229.1173,269.0931,90.9885,-2.8498e-05,-4.33e-06,0.0,0 STARLINK-5582,1 56777U 23078L   24131.61206829 -.00000433  00000-0 -28498-4 0  9994,2 56777  70.0003 229.1173 0002992 269.0931  90.9885 14.98330727 52607,6950.191,96.107,574.135,569.976,0.0
56777.0,STARLINK-5582,PAYLOAD,2024-05-10 16:17:30,14.98326675,0.000305,70.0007,228.9491,270.1266,89.9544,7.6152e-05,8.16e-06,0.0,0 STARLINK-5582,1 56777U 23078L   24131.67882848  .00000816  00000-0  76152-4 0  9994,2 56777  70.0007 228.9491 0003050 270.1266  89.9544 14.98326675 52619,6950.203,96.107,574.188,569.948,0.0
56777.0,STARLINK-5582,PAYLOAD,2024-05-11 13:07:16,14.98312194,0.0002619,70.0001,226.7617,273.4998,86.5861,-0.00020697,-2.56e-05,0.0,0 STARLINK-5582,1 56777U 23078L   24132.54672054 -.00002560  00000-0 -20697-3 0  9999,2 56777  70.0001 226.7617 0002619 273.4998  86.5861 14.98312194 53007,6950.248,96.108,573.933,570.293,0.0
56777.0,STARLINK-5582,PAYLOAD,2024-05-11 19:31:47,14.98332778,0.0002882,69.9998,226.0879,274.8668,85.2162,2.6511e-05,2.23e-06,0.0,0 STARLINK-5582,1 56777U 23078L   24132.81374310  .00000223  00000-0  26511-4 0  9997,2 56777  69.9998 226.0879 0002882 274.8668  85.2162 14.98332778 53047,6950.184,96.107,574.052,570.046,0.0
